{
  "type": "FeatureCollection",
  "features": [
    {
      "type": "Feature",
      "properties": {
        "OBJECT_NAME": "BEIDOU-2 IGSO-7 (C16)",
        "OBJECT_ID": "2018-057A",
        "EPOCH": "2025-11-29T22:57:54.889056",
        "MEAN_MOTION": 1.00260665,
        "ECCENTRICITY": 0.0092408,
        "INCLINATION": 55.1734,
        "RA_OF_ASC_NODE": 164.7843,
        "ARG_OF_PERICENTER": 235.1354,
        "MEAN_ANOMALY": 125.24,
        "EPHEMERIS_TYPE": 0,
        "CLASSIFICATION_TYPE": "U",
        "NORAD_CAT_ID": 43539,
        "ELEMENT_SET_NO": 999,
        "REV_AT_EPOCH": 2713,
        "BSTAR": 0,
        "MEAN_MOTION_DOT": -2.6e-07,
        "MEAN_MOTION_DDOT": 0,
        "norad_id": 43539,
        "name": "BEIDOU-2 IGSO-7 (C16)",
        "group": "beidou",
        "longitude_deg": NaN,
        "latitude_deg": NaN,
        "alt_km": NaN,
        "orbit_class": "HEO",
        "timestamp": "2025-11-30T08:43:09.304094+00:00"
      },
      "geometry": {
        "type": "Point",
        "coordinates": [
          NaN,
          NaN
        ]
      }
    },
    {
      "type": "Feature",
      "properties": {
        "OBJECT_NAME": "BEIDOU-3 M5 (C23)",
        "OBJECT_ID": "2018-062A",
        "EPOCH": "2025-11-29T21:31:06.168288",
        "MEAN_MOTION": 1.86228566,
        "ECCENTRICITY": 0.000214,
        "INCLINATION": 54.0892,
        "RA_OF_ASC_NODE": 189.0808,
        "ARG_OF_PERICENTER": 349.4909,
        "MEAN_ANOMALY": 10.5941,
        "EPHEMERIS_TYPE": 0,
        "CLASSIFICATION_TYPE": "U",
        "NORAD_CAT_ID": 43581,
        "ELEMENT_SET_NO": 999,
        "REV_AT_EPOCH": 4992,
        "BSTAR": 0,
        "MEAN_MOTION_DOT": 1.08e-06,
        "MEAN_MOTION_DDOT": 0,
        "norad_id": 43581,
        "name": "BEIDOU-3 M5 (C23)",
        "group": "beidou",
        "longitude_deg": NaN,
        "latitude_deg": NaN,
        "alt_km": NaN,
        "orbit_class": "HEO",
        "timestamp": "2025-11-30T08:43:09.304203+00:00"
      },
      "geometry": {
        "type": "Point",
        "coordinates": [
          NaN,
          NaN
        ]
      }
    },
    {
      "type": "Feature",
      "properties": {
        "OBJECT_NAME": "BEIDOU-3 M6 (C24)",
        "OBJECT_ID": "2018-062B",
        "EPOCH": "2025-11-29T18:14:01.707936",
        "MEAN_MOTION": 1.86229617,
        "ECCENTRICITY": 0.0007653,
        "INCLINATION": 54.0888,
        "RA_OF_ASC_NODE": 189.0746,
        "ARG_OF_PERICENTER": 45.4041,
        "MEAN_ANOMALY": 314.7473,
        "EPHEMERIS_TYPE": 0,
        "CLASSIFICATION_TYPE": "U",
        "NORAD_CAT_ID": 43582,
        "ELEMENT_SET_NO": 999,
        "REV_AT_EPOCH": 4992,
        "BSTAR": 0,
        "MEAN_MOTION_DOT": 1.07e-06,
        "MEAN_MOTION_DDOT": 0,
        "norad_id": 43582,
        "name": "BEIDOU-3 M6 (C24)",
        "group": "beidou",
        "longitude_deg": NaN,
        "latitude_deg": NaN,
        "alt_km": NaN,
        "orbit_class": "HEO",
        "timestamp": "2025-11-30T08:43:09.304209+00:00"
      },
      "geometry": {
        "type": "Point",
        "coordinates": [
          NaN,
          NaN
        ]
      }
    },
    {
      "type": "Feature",
      "properties": {
        "OBJECT_NAME": "BEIDOU-3 M12 (C26)",
        "OBJECT_ID": "2018-067A",
        "EPOCH": "2025-11-29T03:51:04.626144",
        "MEAN_MOTION": 1.86227642,
        "ECCENTRICITY": 0.0009124,
        "INCLINATION": 54.1831,
        "RA_OF_ASC_NODE": 187.8243,
        "ARG_OF_PERICENTER": 40.2231,
        "MEAN_ANOMALY": 319.9311,
        "EPHEMERIS_TYPE": 0,
        "CLASSIFICATION_TYPE": "U",
        "NORAD_CAT_ID": 43602,
        "ELEMENT_SET_NO": 999,
        "REV_AT_EPOCH": 4939,
        "BSTAR": 0,
        "MEAN_MOTION_DOT": 1.03e-06,
        "MEAN_MOTION_DDOT": 0,
        "norad_id": 43602,
        "name": "BEIDOU-3 M12 (C26)",
        "group": "beidou",
        "longitude_deg": NaN,
        "latitude_deg": NaN,
        "alt_km": NaN,
        "orbit_class": "HEO",
        "timestamp": "2025-11-30T08:43:09.304229+00:00"
      },
      "geometry": {
        "type": "Point",
        "coordinates": [
          NaN,
          NaN
        ]
      }
    },
    {
      "type": "Feature",
      "properties": {
        "OBJECT_NAME": "BEIDOU-3 M11 (C25)",
        "OBJECT_ID": "2018-067B",
        "EPOCH": "2025-11-29T19:57:56.721600",
        "MEAN_MOTION": 1.86227148,
        "ECCENTRICITY": 0.0005557,
        "INCLINATION": 54.1805,
        "RA_OF_ASC_NODE": 187.7656,
        "ARG_OF_PERICENTER": 35.6802,
        "MEAN_ANOMALY": 324.4454,
        "EPHEMERIS_TYPE": 0,
        "CLASSIFICATION_TYPE": "U",
        "NORAD_CAT_ID": 43603,
        "ELEMENT_SET_NO": 999,
        "REV_AT_EPOCH": 4943,
        "BSTAR": 0,
        "MEAN_MOTION_DOT": 1.1e-06,
        "MEAN_MOTION_DDOT": 0,
        "norad_id": 43603,
        "name": "BEIDOU-3 M11 (C25)",
        "group": "beidou",
        "longitude_deg": NaN,
        "latitude_deg": NaN,
        "alt_km": NaN,
        "orbit_class": "HEO",
        "timestamp": "2025-11-30T08:43:09.304235+00:00"
      },
      "geometry": {
        "type": "Point",
        "coordinates": [
          NaN,
          NaN
        ]
      }
    },
    {
      "type": "Feature",
      "properties": {
        "OBJECT_NAME": "BEIDOU-3 M13 (C32)",
        "OBJECT_ID": "2018-072A",
        "EPOCH": "2025-11-29T18:55:23.631744",
        "MEAN_MOTION": 1.86230712,
        "ECCENTRICITY": 0.0005502,
        "INCLINATION": 56.4479,
        "RA_OF_ASC_NODE": 69.2494,
        "ARG_OF_PERICENTER": 298.7252,
        "MEAN_ANOMALY": 61.2275,
        "EPHEMERIS_TYPE": 0,
        "CLASSIFICATION_TYPE": "U",
        "NORAD_CAT_ID": 43622,
        "ELEMENT_SET_NO": 999,
        "REV_AT_EPOCH": 4894,
        "BSTAR": 0,
        "MEAN_MOTION_DOT": -2.9e-07,
        "MEAN_MOTION_DDOT": 0,
        "norad_id": 43622,
        "name": "BEIDOU-3 M13 (C32)",
        "group": "beidou",
        "longitude_deg": NaN,
        "latitude_deg": NaN,
        "alt_km": NaN,
        "orbit_class": "HEO",
        "timestamp": "2025-11-30T08:43:09.304277+00:00"
      },
      "geometry": {
        "type": "Point",
        "coordinates": [
          NaN,
          NaN
        ]
      }
    },
    {
      "type": "Feature",
      "properties": {
        "OBJECT_NAME": "BEIDOU-3 M14 (C33)",
        "OBJECT_ID": "2018-072B",
        "EPOCH": "2025-11-30T04:34:52.620384",
        "MEAN_MOTION": 1.8623077,
        "ECCENTRICITY": 0.0002989,
        "INCLINATION": 56.4499,
        "RA_OF_ASC_NODE": 69.23,
        "ARG_OF_PERICENTER": 337.3138,
        "MEAN_ANOMALY": 22.6797,
        "EPHEMERIS_TYPE": 0,
        "CLASSIFICATION_TYPE": "U",
        "NORAD_CAT_ID": 43623,
        "ELEMENT_SET_NO": 999,
        "REV_AT_EPOCH": 4894,
        "BSTAR": 0,
        "MEAN_MOTION_DOT": -3.2e-07,
        "MEAN_MOTION_DDOT": 0,
        "norad_id": 43623,
        "name": "BEIDOU-3 M14 (C33)",
        "group": "beidou",
        "longitude_deg": NaN,
        "latitude_deg": NaN,
        "alt_km": NaN,
        "orbit_class": "HEO",
        "timestamp": "2025-11-30T08:43:09.304284+00:00"
      },
      "geometry": {
        "type": "Point",
        "coordinates": [
          NaN,
          NaN
        ]
      }
    },
    {
      "type": "Feature",
      "properties": {
        "OBJECT_NAME": "BEIDOU-3 M16 (C35)",
        "OBJECT_ID": "2018-078A",
        "EPOCH": "2025-11-29T19:29:13.021728",
        "MEAN_MOTION": 1.86232174,
        "ECCENTRICITY": 0.000691,
        "INCLINATION": 54.274,
        "RA_OF_ASC_NODE": 306.9733,
        "ARG_OF_PERICENTER": 18.1225,
        "MEAN_ANOMALY": 341.8997,
        "EPHEMERIS_TYPE": 0,
        "CLASSIFICATION_TYPE": "U",
        "NORAD_CAT_ID": 43647,
        "ELEMENT_SET_NO": 999,
        "REV_AT_EPOCH": 4844,
        "BSTAR": 0,
        "MEAN_MOTION_DOT": -4.9e-07,
        "MEAN_MOTION_DDOT": 0,
        "norad_id": 43647,
        "name": "BEIDOU-3 M16 (C35)",
        "group": "beidou",
        "longitude_deg": NaN,
        "latitude_deg": NaN,
        "alt_km": NaN,
        "orbit_class": "HEO",
        "timestamp": "2025-11-30T08:43:09.304331+00:00"
      },
      "geometry": {
        "type": "Point",
        "coordinates": [
          NaN,
          NaN
        ]
      }
    }
  ]
}