BEIDOU-2 IGSO-7 (C16)   
1 43539U 18057A   25333.95688529 -.00000026  00000+0  00000+0 0  9990
2 43539  55.1734 164.7843 0092408 235.1354 125.2400  1.00260665 27133
BEIDOU-3 M5 (C23)       
1 43581U 18062A   25333.89659917  .00000108  00000+0  00000+0 0  9995
2 43581  54.0892 189.0808 0002140 349.4909  10.5941  1.86228566 49928
BEIDOU-3 M6 (C24)       
1 43582U 18062B   25333.75974199  .00000107  00000+0  00000+0 0  9992
2 43582  54.0888 189.0746 0007653  45.4041 314.7473  1.86229617 49926
BEIDOU-3 M12 (C26)      
1 43602U 18067A   25333.16047021  .00000103  00000+0  00000+0 0  9996
2 43602  54.1831 187.8243 0009124  40.2231 319.9311  1.86227642 49390
BEIDOU-3 M11 (C25)      
1 43603U 18067B   25333.83190650  .00000110  00000+0  00000+0 0  9996
2 43603  54.1805 187.7656 0005557  35.6802 324.4454  1.86227148 49432
BEIDOU-3 M13 (C32)      
1 43622U 18072A   25333.78846796 -.00000029  00000+0  00000+0 0  9996
2 43622  56.4479  69.2494 0005502 298.7252  61.2275  1.86230712 48943
BEIDOU-3 M14 (C33)      
1 43623U 18072B   25334.19088681 -.00000032  00000+0  00000+0 0  9998
2 43623  56.4499  69.2300 0002989 337.3138  22.6797  1.86230770 48945
BEIDOU-3 M16 (C35)      
1 43647U 18078A   25333.81195627 -.00000049  00000+0  00000+0 0  9995
2 43647  54.2740 306.9733 0006910  18.1225 341.8997  1.86232174 48449
